[{"OBJECT_NAME":"GAOFEN-4","OBJECT_ID":"2015-083A","EPOCH":"2026-04-05T20:40:38.886816","MEAN_MOTION":1.00270803,"ECCENTRICITY":0.0006205,"INCLINATION":0.3953,"RA_OF_ASC_NODE":82.9472,"ARG_OF_PERICENTER":84.8085,"MEAN_ANOMALY":82.2552,"EPHEMERIS_TYPE":0,"CLASSIFICATION_TYPE":"U","NORAD_CAT_ID":41194,"ELEMENT_SET_NO":999,"REV_AT_EPOCH":3780,"BSTAR":0,"MEAN_MOTION_DOT":-3.33e-6,"MEAN_MOTION_DDOT":0},{"OBJECT_NAME":"BELINTERSAT-1","OBJECT_ID":"2016-001A","EPOCH":"2026-04-05T19:50:10.375008","MEAN_MOTION":1.00270883,"ECCENTRICITY":0.0001498,"INCLINATION":0.0495,"RA_OF_ASC_NODE":70.1249,"ARG_OF_PERICENTER":293.0242,"MEAN_ANOMALY":180.0198,"EPHEMERIS_TYPE":0,"CLASSIFICATION_TYPE":"U","NORAD_CAT_ID":41238,"ELEMENT_SET_NO":999,"REV_AT_EPOCH":3751,"BSTAR":0,"MEAN_MOTION_DOT":1.09e-6,"MEAN_MOTION_DDOT":0},{"OBJECT_NAME":"IRNSS-1E","OBJECT_ID":"2016-003A","EPOCH":"2026-04-04T08:10:43.434336","MEAN_MOTION":1.00272036,"ECCENTRICITY":0.0016904,"INCLINATION":33.0772,"RA_OF_ASC_NODE":60.8121,"ARG_OF_PERICENTER":186.2611,"MEAN_ANOMALY":180.0759,"EPHEMERIS_TYPE":0,"CLASSIFICATION_TYPE":"U","NORAD_CAT_ID":41241,"ELEMENT_SET_NO":999,"REV_AT_EPOCH":3734,"BSTAR":0,"MEAN_MOTION_DOT":-2.92e-6,"MEAN_MOTION_DDOT":0},{"OBJECT_NAME":"INTELSAT 29E (IS-29E)","OBJECT_ID":"2016-004A","EPOCH":"2026-04-05T09:37:38.648928","MEAN_MOTION":1.00630902,"ECCENTRICITY":7.549e-5,"INCLINATION":6.3183,"RA_OF_ASC_NODE":71.1808,"ARG_OF_PERICENTER":310.1548,"MEAN_ANOMALY":226.01,"EPHEMERIS_TYPE":0,"CLASSIFICATION_TYPE":"U","NORAD_CAT_ID":41308,"ELEMENT_SET_NO":999,"REV_AT_EPOCH":3754,"BSTAR":0,"MEAN_MOTION_DOT":-2.15e-6,"MEAN_MOTION_DDOT":0},{"OBJECT_NAME":"EUTELSAT 9B","OBJECT_ID":"2016-005A","EPOCH":"2026-04-05T19:56:26.456928","MEAN_MOTION":1.00271449,"ECCENTRICITY":0.0003924,"INCLINATION":0.0563,"RA_OF_ASC_NODE":58.7759,"ARG_OF_PERICENTER":288.6865,"MEAN_ANOMALY":154.7558,"EPHEMERIS_TYPE":0,"CLASSIFICATION_TYPE":"U","NORAD_CAT_ID":41310,"ELEMENT_SET_NO":999,"REV_AT_EPOCH":3739,"BSTAR":0,"MEAN_MOTION_DOT":6.3e-7,"MEAN_MOTION_DDOT":0},{"OBJECT_NAME":"SES-9","OBJECT_ID":"2016-013A","EPOCH":"2026-04-05T20:06:17.897760","MEAN_MOTION":1.00270963,"ECCENTRICITY":0.0002012,"INCLINATION":0.0157,"RA_OF_ASC_NODE":266.5681,"ARG_OF_PERICENTER":149.3575,"MEAN_ANOMALY":188.0691,"EPHEMERIS_TYPE":0,"CLASSIFICATION_TYPE":"U","NORAD_CAT_ID":41380,"ELEMENT_SET_NO":999,"REV_AT_EPOCH":3671,"BSTAR":0,"MEAN_MOTION_DOT":-3.43e-6,"MEAN_MOTION_DDOT":0},{"OBJECT_NAME":"EUTELSAT 65 WEST A","OBJECT_ID":"2016-014A","EPOCH":"2026-04-05T19:16:51.072096","MEAN_MOTION":1.00271141,"ECCENTRICITY":0.00023,"INCLINATION":0.0628,"RA_OF_ASC_NODE":327.4186,"ARG_OF_PERICENTER":51.2878,"MEAN_ANOMALY":39.4082,"EPHEMERIS_TYPE":0,"CLASSIFICATION_TYPE":"U","NORAD_CAT_ID":41382,"ELEMENT_SET_NO":999,"REV_AT_EPOCH":3679,"BSTAR":0,"MEAN_MOTION_DOT":-2.75e-6,"MEAN_MOTION_DDOT":0},{"OBJECT_NAME":"IRNSS-1F","OBJECT_ID":"2016-015A","EPOCH":"2026-04-05T17:54:05.215680","MEAN_MOTION":1.00275591,"ECCENTRICITY":0.0017867,"INCLINATION":5.1658,"RA_OF_ASC_NODE":98.4631,"ARG_OF_PERICENTER":187.9731,"MEAN_ANOMALY":208.5997,"EPHEMERIS_TYPE":0,"CLASSIFICATION_TYPE":"U","NORAD_CAT_ID":41384,"ELEMENT_SET_NO":999,"REV_AT_EPOCH":3694,"BSTAR":0,"MEAN_MOTION_DOT":1.62e-6,"MEAN_MOTION_DDOT":0},{"OBJECT_NAME":"IRNSS-1G","OBJECT_ID":"2016-027A","EPOCH":"2026-04-05T20:12:24.811776","MEAN_MOTION":1.00270071,"ECCENTRICITY":0.0005872,"INCLINATION":5.0165,"RA_OF_ASC_NODE":99.1899,"ARG_OF_PERICENTER":331.6108,"MEAN_ANOMALY":195.9626,"EPHEMERIS_TYPE":0,"CLASSIFICATION_TYPE":"U","NORAD_CAT_ID":41469,"ELEMENT_SET_NO":999,"REV_AT_EPOCH":3645,"BSTAR":0,"MEAN_MOTION_DOT":-3.31e-6,"MEAN_MOTION_DDOT":0},{"OBJECT_NAME":"JCSAT-2B","OBJECT_ID":"2016-028A","EPOCH":"2026-04-05T15:11:20.506272","MEAN_MOTION":1.00271296,"ECCENTRICITY":0.0001129,"INCLINATION":0.0176,"RA_OF_ASC_NODE":197.3895,"ARG_OF_PERICENTER":188.0106,"MEAN_ANOMALY":190.3736,"EPHEMERIS_TYPE":0,"CLASSIFICATION_TYPE":"U","NORAD_CAT_ID":41471,"ELEMENT_SET_NO":999,"REV_AT_EPOCH":3640,"BSTAR":0,"MEAN_MOTION_DOT":-1.63e-6,"MEAN_MOTION_DDOT":0},{"OBJECT_NAME":"THAICOM 8","OBJECT_ID":"2016-031A","EPOCH":"2026-04-05T19:57:41.224032","MEAN_MOTION":1.00273099,"ECCENTRICITY":0.0004257,"INCLINATION":0.0737,"RA_OF_ASC_NODE":43.8178,"ARG_OF_PERICENTER":334.0592,"MEAN_ANOMALY":194.1878,"EPHEMERIS_TYPE":0,"CLASSIFICATION_TYPE":"U","NORAD_CAT_ID":41552,"ELEMENT_SET_NO":999,"REV_AT_EPOCH":3599,"BSTAR":0,"MEAN_MOTION_DOT":-1.2e-6,"MEAN_MOTION_DDOT":0},{"OBJECT_NAME":"INTELSAT 31 (IS-31)","OBJECT_ID":"2016-035A","EPOCH":"2026-04-05T14:00:21.333600","MEAN_MOTION":1.00272246,"ECCENTRICITY":0.0001503,"INCLINATION":0.0128,"RA_OF_ASC_NODE":223.2111,"ARG_OF_PERICENTER":34.4999,"MEAN_ANOMALY":51.227,"EPHEMERIS_TYPE":0,"CLASSIFICATION_TYPE":"U","NORAD_CAT_ID":41581,"ELEMENT_SET_NO":999,"REV_AT_EPOCH":3595,"BSTAR":0,"MEAN_MOTION_DOT":-1.49e-6,"MEAN_MOTION_DDOT":0},{"OBJECT_NAME":"BEIDOU-2 G7","OBJECT_ID":"2016-037A","EPOCH":"2026-04-05T21:22:01.608960","MEAN_MOTION":1.0027747,"ECCENTRICITY":0.0007576,"INCLINATION":1.5415,"RA_OF_ASC_NODE":68.6376,"ARG_OF_PERICENTER":350.0374,"MEAN_ANOMALY":206.4972,"EPHEMERIS_TYPE":0,"CLASSIFICATION_TYPE":"U","NORAD_CAT_ID":41586,"ELEMENT_SET_NO":999,"REV_AT_EPOCH":616,"BSTAR":0,"MEAN_MOTION_DOT":-3.51e-6,"MEAN_MOTION_DDOT":0},{"OBJECT_NAME":"ABS-2A (MONGOLSAT-1)","OBJECT_ID":"2016-038A","EPOCH":"2026-04-05T20:48:38.808576","MEAN_MOTION":1.00271072,"ECCENTRICITY":0.000165,"INCLINATION":0.0078,"RA_OF_ASC_NODE":244.7179,"ARG_OF_PERICENTER":82.3523,"MEAN_ANOMALY":253.9761,"EPHEMERIS_TYPE":0,"CLASSIFICATION_TYPE":"U","NORAD_CAT_ID":41588,"ELEMENT_SET_NO":999,"REV_AT_EPOCH":3598,"BSTAR":0,"MEAN_MOTION_DOT":-8.2e-7,"MEAN_MOTION_DDOT":0},{"OBJECT_NAME":"EUTELSAT 117 WEST B","OBJECT_ID":"2016-038B","EPOCH":"2026-04-05T15:36:40.577760","MEAN_MOTION":1.00270922,"ECCENTRICITY":2.68e-5,"INCLINATION":0.0146,"RA_OF_ASC_NODE":59.4786,"ARG_OF_PERICENTER":233.8299,"MEAN_ANOMALY":17.8137,"EPHEMERIS_TYPE":0,"CLASSIFICATION_TYPE":"U","NORAD_CAT_ID":41589,"ELEMENT_SET_NO":999,"REV_AT_EPOCH":3593,"BSTAR":0,"MEAN_MOTION_DOT":-1.0e-7,"MEAN_MOTION_DDOT":0},{"OBJECT_NAME":"BRISAT","OBJECT_ID":"2016-039A","EPOCH":"2026-04-05T20:07:38.782848","MEAN_MOTION":1.00271728,"ECCENTRICITY":0.0002216,"INCLINATION":0.0147,"RA_OF_ASC_NODE":253.2034,"ARG_OF_PERICENTER":123.5151,"MEAN_ANOMALY":269.8287,"EPHEMERIS_TYPE":0,"CLASSIFICATION_TYPE":"U","NORAD_CAT_ID":41591,"ELEMENT_SET_NO":999,"REV_AT_EPOCH":3588,"BSTAR":0,"MEAN_MOTION_DOT":-1.94e-6,"MEAN_MOTION_DDOT":0},{"OBJECT_NAME":"ECHOSTAR 18","OBJECT_ID":"2016-039B","EPOCH":"2026-04-05T12:27:11.657088","MEAN_MOTION":1.00271416,"ECCENTRICITY":0.0001571,"INCLINATION":0.0172,"RA_OF_ASC_NODE":195.2855,"ARG_OF_PERICENTER":196.0504,"MEAN_ANOMALY":287.9137,"EPHEMERIS_TYPE":0,"CLASSIFICATION_TYPE":"U","NORAD_CAT_ID":41592,"ELEMENT_SET_NO":999,"REV_AT_EPOCH":3589,"BSTAR":0,"MEAN_MOTION_DOT":-2.8e-6,"MEAN_MOTION_DDOT":0}]
